KUIPER-00089            
1 64834U 25151U   25327.38047358  .00009051  00000+0  13113-2 0  9991
2 64834  51.9022  35.6580 0003473   3.7428 356.3558 14.76667246 19772
KUIPER-00090            
1 64835U 25151V   25328.16668980 -.00041063  00000+0 -49003-2 0  9997
2 64835  51.9000  23.8425 0004248   8.6674 294.5193 14.83883438  4182
KUIPER-00091            
1 64836U 25151W   25327.25054495  .00005788  00000+0  78659-3 0  9999
2 64836  51.9006  33.7661 0007732 301.1291  58.8912 14.79981814 19782
KUIPER-00092            
1 64837U 25151X   25328.00002315  .00019830  00000+0  26215-2 0  9991
2 64837  51.9014  37.9474 0006519 248.4675 189.8755 14.79937691  5566
KUIPER-00093            
1 64838U 25151Y   25327.50983110  .00004712  00000+0  64584-3 0  9992
2 64838  51.9008  42.6063 0013575 256.9424 103.0023 14.79949630 19683
KUIPER-00094            
1 64839U 25151Z   25327.39273142  .00009718  00000+0  70971-3 0  9995
2 64839  51.8912  31.2332 0004843 284.3334  75.7101 15.04230741 19837
KUIPER-00081            
1 65132U 25171A   25328.16668980 -.00793706  00000+0 -42002-1 0  9999
2 65132  51.8883 260.0603 0003583 144.7484 252.4010 15.17694903  5880
KUIPER-00088            
1 65133U 25171B   25328.16668980 -.00019333  00000+0 -24965-2 0  9996
2 65133  51.8994 271.9708 0008575 131.7068  59.2964 14.80196731  1300
